BEIDOU-3 M5             
1 43581U 18062A   23116.71045392 -.00000026  00000+0  00000+0 0  9999
2 43581  54.1995 221.3709 0002374 279.1805 130.7620  1.86231923 32265
BEIDOU-3 M6             
1 43582U 18062B   23116.52496983 -.00000025  00000+0  00000+0 0  9994
2 43582  54.1993 221.3665 0004877  22.0866 354.5361  1.86229472 32261
BEIDOU-3 M12            
1 43602U 18067A   23115.99697613 -.00000020  00000+0  00000+0 0  9990
2 43602  54.2856 220.0277 0007089  20.6191  43.7834  1.86231706 31748
BEIDOU-3 M11            
1 43603U 18067B   23116.64470953 -.00000026  00000+0  00000+0 0  9996
2 43603  54.2824 219.9718 0004017  12.1219  36.8542  1.86231579 31776
BEIDOU-3 M13            
1 43622U 18072A   23115.63723192  .00000018  00000+0  00000+0 0  9997
2 43622  55.6803 100.8745 0009156 291.1500 190.5172  1.86231498 31269
BEIDOU-3 M14            
1 43623U 18072B   23116.72318721  .00000030  00000+0  00000+0 0  9991
2 43623  55.6827 100.8310 0006789 308.8067 271.1790  1.86231481 31283
BEIDOU-3 M16            
1 43647U 18078A   23116.82383223 -.00000092  00000+0  10000-3 0  9997
2 43647  54.9839 339.8302 0008452  13.7182 167.0680  1.86227225 30795
BEIDOU-3 M15            
1 43648U 18078B   23116.42341074 -.00000094  00000+0  00000+0 0  9999
2 43648  54.9795 339.8483 0005456  24.2996 158.1166  1.86232166 30800
BEIDOU-3 G1             
1 43683U 18085A   23116.84899883 -.00000279  00000+0  00000+0 0  9993
2 43683   1.2447 134.6255 0004237 308.2268 217.4609  1.00269730 16559
BEIDOU-3 M17            
1 43706U 18093A   23116.83736860 -.00000027  00000+0  00000+0 0  9993
2 43706  54.2814 221.2754 0008505 276.3349  83.5827  1.86232095 30159
BEIDOU-3 M18            
1 43707U 18093B   23116.70136571 -.00000026  00000+0  00000+0 0  9992
2 43707  54.2831 221.2699 0006445 311.7117  47.9715  1.86229727 30153
NAVSTAR 77 (USA 289)    
1 43873U 18109A   23116.51104209  .00000036  00000+0  00000+0 0  9996
2 43873  55.1579 137.5321 0024061 194.7398 327.7196  2.00562663 32050
BEIDOU-3 IGSO-1         
1 44204U 19023A   23116.83350516 -.00000219  00000+0  00000+0 0  9994
2 44204  57.0288  49.6234 0018969 207.6607  16.6371  1.00268254 14855
BEIDOU-2 G8             
1 44231U 19027A   23116.84987049 -.00000248  00000+0  00000+0 0  9998
2 44231   1.6326  81.0058 0004287 133.6656  90.4286  1.00270720 14561
COSMOS 2534 [GLONASS-M] 
1 44299U 19030A   23116.72415956 -.00000009  00000+0  00000+0 0  9991
2 44299  64.3984 231.3809 0010794 287.9476 115.2070  2.13102093 30486
