[{"OBJECT_NAME":"BEIDOU-3 M5 (C23)","OBJECT_ID":"2018-062A","EPOCH":"2023-04-26T17:03:03.218688","MEAN_MOTION":1.86231923,"ECCENTRICITY":0.0002374,"INCLINATION":54.1995,"RA_OF_ASC_NODE":221.3709,"ARG_OF_PERICENTER":279.1805,"MEAN_ANOMALY":130.762,"EPHEMERIS_TYPE":0,"CLASSIFICATION_TYPE":"U","NORAD_CAT_ID":43581,"ELEMENT_SET_NO":999,"REV_AT_EPOCH":3226,"BSTAR":0,"MEAN_MOTION_DOT":-2.6e-7,"MEAN_MOTION_DDOT":0},{"OBJECT_NAME":"BEIDOU-3 M6 (C24)","OBJECT_ID":"2018-062B","EPOCH":"2023-04-26T12:35:57.393312","MEAN_MOTION":1.86229472,"ECCENTRICITY":0.0004877,"INCLINATION":54.1993,"RA_OF_ASC_NODE":221.3665,"ARG_OF_PERICENTER":22.0866,"MEAN_ANOMALY":354.5361,"EPHEMERIS_TYPE":0,"CLASSIFICATION_TYPE":"U","NORAD_CAT_ID":43582,"ELEMENT_SET_NO":999,"REV_AT_EPOCH":3226,"BSTAR":0,"MEAN_MOTION_DOT":-2.5e-7,"MEAN_MOTION_DDOT":0},{"OBJECT_NAME":"BEIDOU-3 M12 (C26)","OBJECT_ID":"2018-067A","EPOCH":"2023-04-25T23:55:38.737632","MEAN_MOTION":1.86231706,"ECCENTRICITY":0.0007089,"INCLINATION":54.2856,"RA_OF_ASC_NODE":220.0277,"ARG_OF_PERICENTER":20.6191,"MEAN_ANOMALY":43.7834,"EPHEMERIS_TYPE":0,"CLASSIFICATION_TYPE":"U","NORAD_CAT_ID":43602,"ELEMENT_SET_NO":999,"REV_AT_EPOCH":3174,"BSTAR":0,"MEAN_MOTION_DOT":-2.0e-7,"MEAN_MOTION_DDOT":0},{"OBJECT_NAME":"BEIDOU-3 M11 (C25)","OBJECT_ID":"2018-067B","EPOCH":"2023-04-26T15:28:22.903392","MEAN_MOTION":1.86231579,"ECCENTRICITY":0.0004017,"INCLINATION":54.2824,"RA_OF_ASC_NODE":219.9718,"ARG_OF_PERICENTER":12.1219,"MEAN_ANOMALY":36.8542,"EPHEMERIS_TYPE":0,"CLASSIFICATION_TYPE":"U","NORAD_CAT_ID":43603,"ELEMENT_SET_NO":999,"REV_AT_EPOCH":3177,"BSTAR":0,"MEAN_MOTION_DOT":-2.6e-7,"MEAN_MOTION_DDOT":0},{"OBJECT_NAME":"BEIDOU-3 M13 (C32)","OBJECT_ID":"2018-072A","EPOCH":"2023-04-25T15:17:36.837888","MEAN_MOTION":1.86231498,"ECCENTRICITY":0.0009156,"INCLINATION":55.6803,"RA_OF_ASC_NODE":100.8745,"ARG_OF_PERICENTER":291.15,"MEAN_ANOMALY":190.5172,"EPHEMERIS_TYPE":0,"CLASSIFICATION_TYPE":"U","NORAD_CAT_ID":43622,"ELEMENT_SET_NO":999,"REV_AT_EPOCH":3126,"BSTAR":0,"MEAN_MOTION_DOT":1.8e-7,"MEAN_MOTION_DDOT":0},{"OBJECT_NAME":"BEIDOU-3 M14 (C33)","OBJECT_ID":"2018-072B","EPOCH":"2023-04-26T17:21:23.374944","MEAN_MOTION":1.86231481,"ECCENTRICITY":0.0006789,"INCLINATION":55.6827,"RA_OF_ASC_NODE":100.831,"ARG_OF_PERICENTER":308.8067,"MEAN_ANOMALY":271.179,"EPHEMERIS_TYPE":0,"CLASSIFICATION_TYPE":"U","NORAD_CAT_ID":43623,"ELEMENT_SET_NO":999,"REV_AT_EPOCH":3128,"BSTAR":0,"MEAN_MOTION_DOT":3.0e-7,"MEAN_MOTION_DDOT":0},{"OBJECT_NAME":"BEIDOU-3 M16 (C35)","OBJECT_ID":"2018-078A","EPOCH":"2023-04-26T19:46:19.104672","MEAN_MOTION":1.86227225,"ECCENTRICITY":0.0008452,"INCLINATION":54.9839,"RA_OF_ASC_NODE":339.8302,"ARG_OF_PERICENTER":13.7182,"MEAN_ANOMALY":167.068,"EPHEMERIS_TYPE":0,"CLASSIFICATION_TYPE":"U","NORAD_CAT_ID":43647,"ELEMENT_SET_NO":999,"REV_AT_EPOCH":3079,"BSTAR":0.0001,"MEAN_MOTION_DOT":-9.2e-7,"MEAN_MOTION_DDOT":0},{"OBJECT_NAME":"BEIDOU-3 M15 (C34)","OBJECT_ID":"2018-078B","EPOCH":"2023-04-26T10:09:42.687936","MEAN_MOTION":1.86232166,"ECCENTRICITY":0.0005456,"INCLINATION":54.9795,"RA_OF_ASC_NODE":339.8483,"ARG_OF_PERICENTER":24.2996,"MEAN_ANOMALY":158.1166,"EPHEMERIS_TYPE":0,"CLASSIFICATION_TYPE":"U","NORAD_CAT_ID":43648,"ELEMENT_SET_NO":999,"REV_AT_EPOCH":3080,"BSTAR":0,"MEAN_MOTION_DOT":-9.4e-7,"MEAN_MOTION_DDOT":0},{"OBJECT_NAME":"BEIDOU-3 G1 (C59)","OBJECT_ID":"2018-085A","EPOCH":"2023-04-26T20:22:33.498912","MEAN_MOTION":1.0026973,"ECCENTRICITY":0.0004237,"INCLINATION":1.2447,"RA_OF_ASC_NODE":134.6255,"ARG_OF_PERICENTER":308.2268,"MEAN_ANOMALY":217.4609,"EPHEMERIS_TYPE":0,"CLASSIFICATION_TYPE":"U","NORAD_CAT_ID":43683,"ELEMENT_SET_NO":999,"REV_AT_EPOCH":1655,"BSTAR":0,"MEAN_MOTION_DOT":-2.79e-6,"MEAN_MOTION_DDOT":0},{"OBJECT_NAME":"BEIDOU-3 M17 (C36)","OBJECT_ID":"2018-093A","EPOCH":"2023-04-26T20:05:48.647040","MEAN_MOTION":1.86232095,"ECCENTRICITY":0.0008505,"INCLINATION":54.2814,"RA_OF_ASC_NODE":221.2754,"ARG_OF_PERICENTER":276.3349,"MEAN_ANOMALY":83.5827,"EPHEMERIS_TYPE":0,"CLASSIFICATION_TYPE":"U","NORAD_CAT_ID":43706,"ELEMENT_SET_NO":999,"REV_AT_EPOCH":3015,"BSTAR":0,"MEAN_MOTION_DOT":-2.7e-7,"MEAN_MOTION_DDOT":0},{"OBJECT_NAME":"BEIDOU-3 M18 (C37)","OBJECT_ID":"2018-093B","EPOCH":"2023-04-26T16:49:57.997344","MEAN_MOTION":1.86229727,"ECCENTRICITY":0.0006445,"INCLINATION":54.2831,"RA_OF_ASC_NODE":221.2699,"ARG_OF_PERICENTER":311.7117,"MEAN_ANOMALY":47.9715,"EPHEMERIS_TYPE":0,"CLASSIFICATION_TYPE":"U","NORAD_CAT_ID":43707,"ELEMENT_SET_NO":999,"REV_AT_EPOCH":3015,"BSTAR":0,"MEAN_MOTION_DOT":-2.6e-7,"MEAN_MOTION_DDOT":0},{"OBJECT_NAME":"GPS BIII-1  (PRN 04)","OBJECT_ID":"2018-109A","EPOCH":"2023-04-26T12:15:54.036576","MEAN_MOTION":2.00562663,"ECCENTRICITY":0.0024061,"INCLINATION":55.1579,"RA_OF_ASC_NODE":137.5321,"ARG_OF_PERICENTER":194.7398,"MEAN_ANOMALY":327.7196,"EPHEMERIS_TYPE":0,"CLASSIFICATION_TYPE":"U","NORAD_CAT_ID":43873,"ELEMENT_SET_NO":999,"REV_AT_EPOCH":3205,"BSTAR":0,"MEAN_MOTION_DOT":3.6e-7,"MEAN_MOTION_DDOT":0},{"OBJECT_NAME":"BEIDOU-3 IGSO-1 (C38)","OBJECT_ID":"2019-023A","EPOCH":"2023-04-26T20:00:14.845824","MEAN_MOTION":1.00268254,"ECCENTRICITY":0.0018969,"INCLINATION":57.0288,"RA_OF_ASC_NODE":49.6234,"ARG_OF_PERICENTER":207.6607,"MEAN_ANOMALY":16.6371,"EPHEMERIS_TYPE":0,"CLASSIFICATION_TYPE":"U","NORAD_CAT_ID":44204,"ELEMENT_SET_NO":999,"REV_AT_EPOCH":1485,"BSTAR":0,"MEAN_MOTION_DOT":-2.19e-6,"MEAN_MOTION_DDOT":0},{"OBJECT_NAME":"BEIDOU-2 G8 (C01)","OBJECT_ID":"2019-027A","EPOCH":"2023-04-26T20:23:48.810336","MEAN_MOTION":1.0027072,"ECCENTRICITY":0.0004287,"INCLINATION":1.6326,"RA_OF_ASC_NODE":81.0058,"ARG_OF_PERICENTER":133.6656,"MEAN_ANOMALY":90.4286,"EPHEMERIS_TYPE":0,"CLASSIFICATION_TYPE":"U","NORAD_CAT_ID":44231,"ELEMENT_SET_NO":999,"REV_AT_EPOCH":1456,"BSTAR":0,"MEAN_MOTION_DOT":-2.48e-6,"MEAN_MOTION_DDOT":0},{"OBJECT_NAME":"COSMOS 2534 (758)","OBJECT_ID":"2019-030A","EPOCH":"2023-04-26T17:22:47.385984","MEAN_MOTION":2.13102093,"ECCENTRICITY":0.0010794,"INCLINATION":64.3984,"RA_OF_ASC_NODE":231.3809,"ARG_OF_PERICENTER":287.9476,"MEAN_ANOMALY":115.207,"EPHEMERIS_TYPE":0,"CLASSIFICATION_TYPE":"U","NORAD_CAT_ID":44299,"ELEMENT_SET_NO":999,"REV_AT_EPOCH":3048,"BSTAR":0,"MEAN_MOTION_DOT":-9.0e-8,"MEAN_MOTION_DDOT":0}]
